NORAD_CAT_ID,OBJECT_NAME,OBJECT_TYPE,EPOCH,MEAN_MOTION,ECCENTRICITY,INCLINATION,RA_OF_ASC_NODE,ARG_OF_PERICENTER,MEAN_ANOMALY,BSTAR,MEAN_MOTION_DOT,MEAN_MOTION_DDOT,TLE_LINE0,TLE_LINE1,TLE_LINE2,SEMIMAJOR_AXIS,PERIOD,APOGEE,PERIGEE,DECAYED
51880.0,STARLINK-3566,PAYLOAD,2024-01-07 07:20:24,15.08837725,0.0001651,53.2194,325.9884,105.7165,254.401,3.7372e-05,3.07e-06,0.0,0 STARLINK-3566,1 51880U 22022AE  24007.30583684  .00000307  00000-0  37372-4 0  9996,2 51880  53.2194 325.9884 0001651 105.7165 254.4010 15.08837725103494,6917.887,95.438,540.894,538.61,0.0
51880.0,STARLINK-3566,PAYLOAD,2024-01-07 21:38:52,15.0883401,0.0001679,53.2196,323.3128,105.2112,254.9066,5.1225e-05,5.27e-06,0.0,0 STARLINK-3566,1 51880U 22022AE  24007.90200059  .00000527  00000-0  51225-4 0  9991,2 51880  53.2196 323.3128 0001679 105.2112 254.9066 15.08834010103586,6917.899,95.438,540.925,538.602,0.0
51880.0,STARLINK-3566,PAYLOAD,2024-01-08 07:11:11,15.08807739,0.0001894,53.2195,321.5272,107.9055,252.2144,0.00056907,8.772e-05,0.0,0 STARLINK-3566,1 51880U 22022AE  24008.29944372  .00008772  00000-0  56907-3 0  9998,2 51880  53.2195 321.5272 0001894 107.9055 252.2144 15.08807739103642,6917.979,95.44,541.154,538.534,0.0
51880.0,STARLINK-3566,PAYLOAD,2024-01-09 03:51:12,15.08839273,0.0001484,53.2188,317.6574,96.2154,263.9007,4.073e-05,3.6e-06,0.0,0 STARLINK-3566,1 51880U 22022AE  24009.16056107  .00000360  00000-0  40730-4 0  9998,2 51880  53.2188 317.6574 0001484  96.2154 263.9007 15.08839273103779,6917.883,95.438,540.774,538.721,0.0
51880.0,STARLINK-3566,PAYLOAD,2024-01-09 05:26:35,15.08839953,0.000149,53.2188,317.3603,100.4497,259.6663,4.3016e-05,3.97e-06,0.0,0 STARLINK-3566,1 51880U 22022AE  24009.22680087  .00000397  00000-0  43016-4 0  9995,2 51880  53.2188 317.3603 0001490 100.4497 259.6663 15.08839953103780,6917.881,95.438,540.776,538.715,0.0
51880.0,STARLINK-3566,PAYLOAD,2024-01-10 03:41:59,15.08848725,0.0001516,53.2192,313.2035,85.967,274.1496,9.8751e-05,1.284e-05,0.0,0 STARLINK-3566,1 51880U 22022AE  24010.15415534  .00001284  00000-0  98751-4 0  9994,2 51880  53.2192 313.2035 0001516  85.9670 274.1496 15.08848725103927,6917.854,95.437,540.767,538.67,0.0
51880.0,STARLINK-3566,PAYLOAD,2024-01-11 03:32:46,15.08841521,0.0001544,53.2193,308.7452,80.5898,279.5268,5.6469e-05,6.11e-06,0.0,0 STARLINK-3566,1 51880U 22022AE  24011.14776332  .00000611  00000-0  56469-4 0  9993,2 51880  53.2193 308.7452 0001544  80.5898 279.5268 15.08841521104074,6917.876,95.437,540.809,538.673,0.0
51880.0,STARLINK-3566,PAYLOAD,2024-01-11 05:08:09,15.08843633,0.0001627,53.2203,308.439,75.0948,285.0224,6.6612e-05,7.72e-06,0.0,0 STARLINK-3566,1 51880U 22022AE  24011.21400123  .00000772  00000-0  66612-4 0  9992,2 51880  53.2203 308.4390 0001627  75.0948 285.0224 15.08843633104082,6917.869,95.437,540.86,538.609,0.0
51880.0,STARLINK-3566,PAYLOAD,2024-01-12 01:48:10,15.08848432,0.0002187,53.2215,304.5723,59.6093,300.5115,6.5619e-06,-1.84e-06,0.0,0 STARLINK-3566,1 51880U 22022AE  24012.07512071 -.00000184  00000-0  65619-5 0  9998,2 51880  53.2215 304.5723 0002187  59.6093 300.5115 15.08848432104212,6917.855,95.437,541.233,538.207,0.0
51880.0,STARLINK-3566,PAYLOAD,2024-01-12 22:28:11,15.08840202,0.000156,53.2198,300.7158,73.9633,286.1531,-2.8322e-05,-7.39e-06,0.0,0 STARLINK-3566,1 51880U 22022AE  24012.93624857 -.00000739  00000-0 -28322-4 0  9995,2 51880  53.2198 300.7158 0001560  73.9633 286.1531 15.08840202104347,6917.88,95.438,540.824,538.666,0.0
51880.0,STARLINK-3566,PAYLOAD,2024-01-13 04:49:44,15.08842669,0.0001564,53.2201,299.5216,80.9809,279.1361,2.6679e-05,1.37e-06,0.0,0 STARLINK-3566,1 51880U 22022AE  24013.20120494  .00000137  00000-0  26679-4 0  9997,2 51880  53.2201 299.5216 0001564  80.9809 279.1361 15.08842669104385,6917.872,95.437,540.819,538.655,0.0
51880.0,STARLINK-3566,PAYLOAD,2024-01-14 04:40:30,15.08849819,0.0001717,53.2199,295.0604,74.4934,285.6247,6.8017e-05,7.95e-06,0.0,0 STARLINK-3566,1 51880U 22022AE  24014.19480092  .00000795  00000-0  68017-4 0  9991,2 51880  53.2199 295.0604 0001717  74.4934 285.6247 15.08849819104536,6917.85,95.437,540.903,538.528,0.0
51880.0,STARLINK-3566,PAYLOAD,2024-01-14 18:58:59,15.08840079,0.0001461,53.2196,292.384,103.3026,256.8129,8.5044e-05,1.066e-05,0.0,0 STARLINK-3566,1 51880U 22022AE  24014.79096658  .00001066  00000-0  85044-4 0  9999,2 51880  53.2196 292.3840 0001461 103.3026 256.8129 15.08840079104623,6917.88,95.438,540.756,538.734,0.0
51880.0,STARLINK-3566,PAYLOAD,2024-01-14 22:09:45,15.08842279,0.0001442,53.2194,291.7896,101.5841,258.5313,7.8766e-05,9.66e-06,0.0,0 STARLINK-3566,1 51880U 22022AE  24014.92344513  .00000966  00000-0  78766-4 0  9991,2 51880  53.2194 291.7896 0001442 101.5841 258.5313 15.08842279104649,6917.873,95.437,540.736,538.741,0.0
51880.0,STARLINK-3566,PAYLOAD,2024-01-15 01:20:31,15.08846821,0.0001468,53.2191,291.1938,101.1208,258.9949,0.0001171,1.577e-05,0.0,0 STARLINK-3566,1 51880U 22022AE  24015.05592067  .00001577  00000-0  11710-3 0  9999,2 51880  53.2191 291.1938 0001468 101.1208 258.9949 15.08846821104666,6917.86,95.437,540.74,538.709,0.0
51880.0,STARLINK-3566,PAYLOAD,2024-01-16 02:46:42,15.08848155,0.0001484,53.2189,286.4405,102.9016,257.2142,1.5688e-05,-3.8e-07,0.0,0 STARLINK-3566,1 51880U 22022AE  24016.11576401 -.00000038  00000-0  15688-4 0  9992,2 51880  53.2189 286.4405 0001484 102.9016 257.2142 15.08848155104820,6917.855,95.437,540.747,538.694,0.0
51880.0,STARLINK-3566,PAYLOAD,2024-01-16 21:51:20,15.08839814,0.0001606,53.2192,282.8728,96.9208,263.1967,-2.1677e-05,-6.33e-06,0.0,0 STARLINK-3566,1 51880U 22022AE  24016.91065155 -.00000633  00000-0 -21677-4 0  9996,2 51880  53.2192 282.8728 0001606  96.9208 263.1967 15.08839814104949,6917.881,95.438,540.857,538.635,0.0
51880.0,STARLINK-3566,PAYLOAD,2024-01-17 01:02:06,15.08844167,0.0001491,53.2186,282.2789,95.8153,264.3009,1.6697e-05,-2.2e-07,0.0,0 STARLINK-3566,1 51880U 22022AE  24017.04312785 -.00000022  00000-0  16697-4 0  9992,2 51880  53.2186 282.2789 0001491  95.8153 264.3009 15.08844167104961,6917.868,95.437,540.764,538.701,0.0
51880.0,STARLINK-3566,PAYLOAD,2024-01-17 21:42:07,15.08840298,0.0001503,53.2184,278.4141,85.6271,274.4893,3.8966e-05,3.32e-06,0.0,0 STARLINK-3566,1 51880U 22022AE  24017.90425433  .00000332  00000-0  38966-4 0  9998,2 51880  53.2184 278.4141 0001503  85.6271 274.4893 15.08840298105099,6917.879,95.438,540.784,538.705,0.0
51880.0,STARLINK-3566,PAYLOAD,2024-01-18 02:28:16,15.0884525,0.0001633,53.2191,277.5168,79.8123,280.3053,7.6045e-05,9.23e-06,0.0,0 STARLINK-3566,1 51880U 22022AE  24018.10297040  .00000923  00000-0  76045-4 0  9998,2 51880  53.2191 277.5168 0001633  79.8123 280.3053 15.08845250105122,6917.864,95.437,540.859,538.6,0.0
51880.0,STARLINK-3566,PAYLOAD,2024-01-18 21:32:54,15.08842082,0.0001321,53.217,273.9521,118.4849,241.6276,3.5563e-05,2.78e-06,0.0,0 STARLINK-3566,1 51880U 22022AE  24018.89785193  .00000278  00000-0  35563-4 0  9998,2 51880  53.2170 273.9521 0001321 118.4849 241.6276 15.08842082105241,6917.874,95.437,540.653,538.825,0.0
51880.0,STARLINK-3566,PAYLOAD,2024-01-19 02:19:03,15.088502,0.0001425,53.2182,273.0565,97.908,262.2074,0.00012874,1.762e-05,0.0,0 STARLINK-3566,1 51880U 22022AE  24019.09656470  .00001762  00000-0  12874-3 0  9994,2 51880  53.2182 273.0565 0001425  97.9080 262.2074 15.08850200105275,6917.849,95.437,540.7,538.728,0.0
51880.0,STARLINK-3566,PAYLOAD,2024-01-19 22:59:04,15.08845251,0.0001312,53.2168,269.1946,111.2526,248.8606,5.5942e-05,6.03e-06,0.0,0 STARLINK-3566,1 51880U 22022AE  24019.95768877  .00000603  00000-0  55942-4 0  9991,2 51880  53.2168 269.1946 0001312 111.2526 248.8606 15.08845251105404,6917.864,95.437,540.637,538.822,0.0
51880.0,STARLINK-3566,PAYLOAD,2024-01-20 19:39:05,15.08841797,0.0001315,53.2165,265.3299,94.0671,266.0471,-6.9554e-06,-3.99e-06,0.0,0 STARLINK-3566,1 51880U 22022AE  24020.81881447 -.00000399  00000-0 -69554-5 0  9996,2 51880  53.2165 265.3299 0001315  94.0671 266.0471 15.08841797105539,6917.875,95.437,540.65,538.83,0.0
51880.0,STARLINK-3566,PAYLOAD,2024-01-20 22:49:51,15.08843772,0.0001338,53.2167,264.7343,97.5533,262.5611,3.469e-06,-2.33e-06,0.0,0 STARLINK-3566,1 51880U 22022AE  24020.95129227 -.00000233  00000-0  34690-5 0  9991,2 51880  53.2167 264.7343 0001338  97.5533 262.5611 15.08843772105558,6917.869,95.437,540.659,538.808,0.0
51880.0,STARLINK-3566,PAYLOAD,2024-01-21 02:00:37,15.0884455,0.0001327,53.2168,264.1385,107.4546,252.6591,2.2225e-05,6.6e-07,0.0,0 STARLINK-3566,1 51880U 22022AE  24021.08377032  .00000066  00000-0  22225-4 0  9998,2 51880  53.2168 264.1385 0001327 107.4546 252.6591 15.08844550105576,6917.866,95.437,540.649,538.813,0.0
51880.0,STARLINK-3566,PAYLOAD,2024-01-21 22:40:38,15.08844621,0.0001488,53.2175,260.2706,100.9976,259.1183,4.0596e-06,-2.23e-06,0.0,0 STARLINK-3566,1 51880U 22022AE  24021.94489198 -.00000223  00000-0  40596-5 0  9998,2 51880  53.2175 260.2706 0001488 100.9976 259.1183 15.08844621105704,6917.866,95.437,540.761,538.702,0.0
51880.0,STARLINK-3566,PAYLOAD,2024-01-22 19:20:40,15.08826361,0.0001795,53.2173,256.4046,114.4962,245.6217,0.00017647,2.521e-05,0.0,0 STARLINK-3566,1 51880U 22022AE  24022.80601979  .00002521  00000-0  17647-3 0  9998,2 51880  53.2173 256.4046 0001795 114.4962 245.6217 15.08826361105835,6917.922,95.438,541.029,538.545,0.0
51880.0,STARLINK-3566,PAYLOAD,2024-01-22 22:31:26,15.08835658,0.0001532,53.2175,255.8119,111.8577,248.2578,2.007e-05,3.1e-07,0.0,0 STARLINK-3566,1 51880U 22022AE  24022.93849851  .00000031  00000-0  20070-4 0  9994,2 51880  53.2175 255.8119 0001532 111.8577 248.2578 15.08835658105853,6917.894,95.438,540.818,538.699,0.0
51880.0,STARLINK-3566,PAYLOAD,2024-01-23 20:46:49,15.08842574,0.0001657,53.218,251.6536,120.6502,239.4654,6.9987e-05,8.26e-06,0.0,0 STARLINK-3566,1 51880U 22022AE  24023.86585385  .00000826  00000-0  69987-4 0  9998,2 51880  53.2180 251.6536 0001657 120.6502 239.4654 15.08842574105997,6917.873,95.437,540.884,538.591,0.0
